[Satellite]
VERSION=1.1
NAME=GORIZONT 7 [-]
NICKNAME=GORIZONT 7 [-]
TLE1=1 14160U 83066A   15050.45345861 -.00000051  00000-0  00000+0 0  9998
TLE2=2 14160  15.3170 350.6663 0012276 230.7345 316.2540  0.98346899114117
